OBJECT_NAME,OBJECT_ID,EPOCH,MEAN_MOTION,ECCENTRICITY,INCLINATION,RA_OF_ASC_NODE,ARG_OF_PERICENTER,MEAN_ANOMALY,EPHEMERIS_TYPE,CLASSIFICATION_TYPE,NORAD_CAT_ID,ELEMENT_SET_NO,REV_AT_EPOCH,BSTAR,MEAN_MOTION_DOT,MEAN_MOTION_DDOT
IRIDIUM 138,2017-083B,2026-06-27T10:23:23.169984,14.34217889,.0002229,86.3985,317.4282,87.2778,272.8673,0,U,43071,999,44560,.84853E-5,.44E-6,0
IRIDIUM 116,2017-083C,2026-06-27T11:18:11.140128,14.34218077,.0002204,86.3973,317.7013,101.7304,258.4140,0,U,43072,999,44564,.27597E-4,.97E-6,0
IRIDIUM 130,2017-083D,2026-06-27T10:32:31.029792,14.34217329,.0002014,86.3979,317.9907,96.8197,263.3228,0,U,43073,999,44558,.2429E-4,.88E-6,0
IRIDIUM 151,2017-083E,2026-06-27T11:36:27.175104,14.34217547,.000209,86.3972,317.7541,94.2887,265.8547,0,U,43074,999,44561,-.34262E-5,.1E-6,0
IRIDIUM 134,2017-083F,2026-06-27T10:50:47.018112,14.34218993,.0002127,86.3976,317.7753,93.9489,266.1950,0,U,43075,999,44557,.55613E-4,.176E-5,0
IRIDIUM 137,2017-083G,2026-06-27T11:09:03.232800,14.34217418,.0002391,86.3975,317.8633,101.9258,258.2206,0,U,43076,999,44564,-.86744E-5,-.5E-7,0
IRIDIUM 141,2017-083H,2026-06-27T10:59:55.169952,14.34217702,.0002214,86.3972,317.6957,91.5350,268.6100,0,U,43077,999,44564,-.42704E-6,.19E-6,0
IRIDIUM 153,2017-083J,2026-06-27T13:11:59.414208,14.34217546,.0002076,86.3963,286.1382,91.0754,269.0679,0,U,43078,999,44676,-.15266E-5,.16E-6,0
IRIDIUM 131,2017-083K,2026-06-27T10:41:39.172128,14.34217750,.0002233,86.3977,317.8877,92.2019,267.9433,0,U,43079,999,44557,.10913E-4,.5E-6,0
IRIDIUM 144,2018-030A,2026-06-27T13:21:07.174656,14.34216928,.0002215,86.3964,286.0643,98.1651,261.9796,0,U,43249,999,43162,.54063E-4,.171E-5,0
IRIDIUM 149,2018-030B,2026-06-27T08:28:51.419424,14.34217853,.00023,86.3963,286.1161,93.7385,266.4074,0,U,43250,999,43161,.49813E-5,.34E-6,0
IRIDIUM 157,2018-030C,2026-06-27T07:15:47.323584,14.34218419,.0002224,86.3965,286.1907,94.7185,265.4265,0,U,43251,999,43158,.24544E-4,.89E-6,0
IRIDIUM 140,2018-030D,2026-06-27T12:44:35.336256,14.34217637,.0002192,86.3965,286.1078,95.4626,264.6820,0,U,43252,999,43167,.40511E-4,.133E-5,0
IRIDIUM 145,2018-030E,2026-06-27T09:05:23.136000,14.34225387,.0002469,86.3979,286.1479,112.1657,247.9801,0,U,43253,999,43158,.35863E-4,.12E-5,0
IRIDIUM 146,2018-030F,2026-06-27T13:39:23.411808,14.34217906,.0002271,86.3964,286.0763,97.6518,262.4936,0,U,43254,999,43162,.20261E-4,.77E-6,0
IRIDIUM 148,2018-030G,2026-06-27T12:53:43.429344,14.34217759,.0002357,86.3965,286.1329,95.7782,264.3682,0,U,43255,999,43165,-.10362E-5,.17E-6,0
IRIDIUM 142,2018-030H,2026-06-27T08:47:07.425024,14.34217670,.0002282,86.3961,286.0931,99.4833,260.6621,0,U,43256,999,43159,-.41049E-5,.8E-7,0
IRIDIUM 150,2018-030J,2026-06-27T13:02:51.351360,14.34218182,.0002168,86.3966,286.1355,95.6819,264.4624,0,U,43257,999,43164,.32488E-4,.111E-5,0
IRIDIUM 143,2018-030K,2026-06-27T09:14:31.356096,14.34218661,.0002188,86.3968,286.2948,98.1630,261.9814,0,U,43258,999,43155,.78235E-4,.239E-5,0
IRIDIUM 161,2018-047C,2026-06-27T11:58:58.395072,14.43277631,.0002515,86.4479,84.1599,81.7849,278.3637,0,U,43478,999,42662,.8026E-4,.29E-5,0
IRIDIUM 152,2018-047D,2026-06-27T11:56:10.170816,14.34218279,.0002276,86.3955,84.0219,82.2490,277.8965,0,U,43479,999,42396,.59755E-4,.187E-5,0
IRIDIUM 147,2018-047E,2026-06-27T10:24:50.247360,14.34217752,.0002168,86.3956,84.0537,87.3930,272.7514,0,U,43480,999,42395,.39297E-5,.31E-6,0
IRIDIUM 110,2018-047F,2026-06-27T10:33:58.298976,14.34217530,.000236,86.3956,84.1430,78.1728,281.9732,0,U,43481,999,42394,-.11525E-5,.17E-6,0
IRIDIUM 162,2018-047G,2026-06-27T06:50:23.640576,14.43279398,.0002282,86.4481,84.1403,83.2674,276.8786,0,U,43482,999,42658,.87667E-4,.315E-5,0
IRIDIUM 160,2018-061A,2026-06-27T09:15:58.479264,14.34217875,.0002252,86.3954,52.5326,85.5947,274.5506,0,U,43569,999,41483,.11517E-4,.52E-6,0
IRIDIUM 166,2018-061B,2026-06-27T09:52:30.432576,14.34217663,.0002057,86.3947,52.4720,88.3977,271.7454,0,U,43570,999,41486,.38291E-6,.21E-6,0
IRIDIUM 158,2018-061C,2026-06-27T04:05:26.458368,14.34217550,.00021514,86.3951,52.5830,83.9722,276.1719,0,U,43571,999,41479,.17512047E-4,.69E-6,0
IRIDIUM 165,2018-061D,2026-06-27T09:43:22.444032,14.34217579,.0002144,86.3954,52.5315,89.5369,270.6073,0,U,43572,999,41485,.21114E-4,.79E-6,0
IRIDIUM 155,2018-061E,2026-06-27T08:48:34.433280,14.34218047,.0002057,86.3950,52.4159,84.9517,275.1913,0,U,43573,999,41481,.20513E-4,.77E-6,0
IRIDIUM 154,2018-061F,2026-06-27T08:21:10.452960,14.34217937,.0002177,86.3953,52.5580,89.1692,270.9753,0,U,43574,999,41486,.24011E-4,.87E-6,0
IRIDIUM 163,2018-061G,2026-06-27T09:34:14.489184,14.34217929,.0002203,86.3952,52.4518,83.7754,276.3693,0,U,43575,999,41484,.32042E-4,.11E-5,0
