IRIDIUM 138             
1 43071U 17083B   26178.43290706  .00000044  00000+0  84853-5 0  9999
2 43071  86.3985 317.4282 0002229  87.2778 272.8673 14.34217889445608
IRIDIUM 116             
1 43072U 17083C   26178.47096227  .00000097  00000+0  27597-4 0  9995
2 43072  86.3973 317.7013 0002204 101.7304 258.4140 14.34218077445644
IRIDIUM 130             
1 43073U 17083D   26178.43924803  .00000088  00000+0  24290-4 0  9999
2 43073  86.3979 317.9907 0002014  96.8197 263.3228 14.34217329445582
IRIDIUM 151             
1 43074U 17083E   26178.48364786  .00000010  00000+0 -34262-5 0  9990
2 43074  86.3972 317.7541 0002090  94.2887 265.8547 14.34217547445617
IRIDIUM 134             
1 43075U 17083F   26178.45193308  .00000176  00000+0  55613-4 0  9992
2 43075  86.3976 317.7753 0002127  93.9489 266.1950 14.34218993445575
IRIDIUM 137             
1 43076U 17083G   26178.46462075 -.00000005  00000+0 -86744-5 0  9997
2 43076  86.3975 317.8633 0002391 101.9258 258.2206 14.34217418445645
IRIDIUM 141             
1 43077U 17083H   26178.45827743  .00000019  00000+0 -42704-6 0  9997
2 43077  86.3972 317.6957 0002214  91.5350 268.6100 14.34217702445645
IRIDIUM 153             
1 43078U 17083J   26178.54999322  .00000016  00000+0 -15266-5 0  9990
2 43078  86.3963 286.1382 0002076  91.0754 269.0679 14.34217546446763
IRIDIUM 131             
1 43079U 17083K   26178.44559227  .00000050  00000+0  10913-4 0  9996
2 43079  86.3977 317.8877 0002233  92.2019 267.9433 14.34217750445572
IRIDIUM 144             
1 43249U 18030A   26178.55633304  .00000171  00000+0  54063-4 0  9997
2 43249  86.3964 286.0643 0002215  98.1651 261.9796 14.34216928431625
IRIDIUM 149             
1 43250U 18030B   26178.35337291  .00000034  00000+0  49813-5 0  9999
2 43250  86.3963 286.1161 0002300  93.7385 266.4074 14.34217853431618
IRIDIUM 157             
1 43251U 18030C   26178.30263106  .00000089  00000+0  24544-4 0  9991
2 43251  86.3965 286.1907 0002224  94.7185 265.4265 14.34218419431589
IRIDIUM 140             
1 43252U 18030D   26178.53096454  .00000133  00000+0  40511-4 0  9999
2 43252  86.3965 286.1078 0002192  95.4626 264.6820 14.34217637431670
IRIDIUM 145             
1 43253U 18030E   26178.37874000  .00000120  00000+0  35863-4 0  9993
2 43253  86.3979 286.1479 0002469 112.1657 247.9801 14.34225387431583
IRIDIUM 146             
1 43254U 18030F   26178.56902097  .00000077  00000+0  20261-4 0  9990
2 43254  86.3964 286.0763 0002271  97.6518 262.4936 14.34217906431621
IRIDIUM 148             
1 43255U 18030G   26178.53730821  .00000017  00000+0 -10362-5 0  9999
2 43255  86.3965 286.1329 0002357  95.7782 264.3682 14.34217759431657
IRIDIUM 142             
1 43256U 18030H   26178.36605816  .00000008  00000+0 -41049-5 0  9992
2 43256  86.3961 286.0931 0002282  99.4833 260.6621 14.34217670431594
IRIDIUM 150             
1 43257U 18030J   26178.54364990  .00000111  00000+0  32488-4 0  9998
2 43257  86.3966 286.1355 0002168  95.6819 264.4624 14.34218182431646
IRIDIUM 143             
1 43258U 18030K   26178.38508514  .00000239  00000+0  78235-4 0  9994
2 43258  86.3968 286.2948 0002188  98.1630 261.9814 14.34218661431554
IRIDIUM 161             
1 43478U 18047C   26178.49928698  .00000290  00000+0  80260-4 0  9995
2 43478  86.4479  84.1599 0002515  81.7849 278.3637 14.43277631426626
IRIDIUM 152             
1 43479U 18047D   26178.49733994  .00000187  00000+0  59755-4 0  9999
2 43479  86.3955  84.0219 0002276  82.2490 277.8965 14.34218279423960
IRIDIUM 147             
1 43480U 18047E   26178.43391490  .00000031  00000+0  39297-5 0  9994
2 43480  86.3956  84.0537 0002168  87.3930 272.7514 14.34217752423959
IRIDIUM 110             
1 43481U 18047F   26178.44025809  .00000017  00000+0 -11525-5 0  9993
2 43481  86.3956  84.1430 0002360  78.1728 281.9732 14.34217530423947
IRIDIUM 162             
1 43482U 18047G   26178.28499584  .00000315  00000+0  87667-4 0  9990
2 43482  86.4481  84.1403 0002282  83.2674 276.8786 14.43279398426587
IRIDIUM 160             
1 43569U 18061A   26178.38609351  .00000052  00000+0  11517-4 0  9997
2 43569  86.3954  52.5326 0002252  85.5947 274.5506 14.34217875414837
IRIDIUM 166             
1 43570U 18061B   26178.41146334  .00000021  00000+0  38291-6 0  9996
2 43570  86.3947  52.4720 0002057  88.3977 271.7454 14.34217663414864
IRIDIUM 158             
1 43571U 18061C   26178.17044512  .00000069  00000+0  17512-4 0  9998
2 43571  86.3951  52.5830 0002151  83.9722 276.1719 14.34217550414797
IRIDIUM 165             
1 43572U 18061D   26178.40512088  .00000079  00000+0  21114-4 0  9997
2 43572  86.3954  52.5315 0002144  89.5369 270.6073 14.34217579414850
IRIDIUM 155             
1 43573U 18061E   26178.36706520  .00000077  00000+0  20513-4 0  9999
2 43573  86.3950  52.4159 0002057  84.9517 275.1913 14.34218047414819
IRIDIUM 154             
1 43574U 18061F   26178.34803765  .00000087  00000+0  24011-4 0  9995
2 43574  86.3953  52.5580 0002177  89.1692 270.9753 14.34217937414863
IRIDIUM 163             
1 43575U 18061G   26178.39877881  .00000110  00000+0  32042-4 0  9991
2 43575  86.3952  52.4518 0002203  83.7754 276.3693 14.34217929414844
